[ {"CCSDS_OMM_VERS": "2.0", "COMMENT": "GENERATED VIA SPACE-TRACK.ORG API", "CREATION_DATE": "2021-06-16T21:26:11", "ORIGINATOR": "18 SPCS", "OBJECT_NAME": "ARIANE 42L R/B", "OBJECT_ID": "1998-075B", "CENTER_NAME": "EARTH", "REF_FRAME": "TEME", "TIME_SYSTEM": "UTC", "MEAN_ELEMENT_THEORY": "SGP4", "EPOCH": "2021-06-16T21:15:21.996864", "MEAN_MOTION": "16.30666521", "ECCENTRICITY": "0.00857980", "INCLINATION": "7.4717", "RA_OF_ASC_NODE": "277.7280", "ARG_OF_PERICENTER": "357.6918", "MEAN_ANOMALY": "111.8858", "EPHEMERIS_TYPE": "0", "CLASSIFICATION_TYPE": "U", "NORAD_CAT_ID": "25586", "ELEMENT_SET_NO": "999", "REV_AT_EPOCH": "31371", "BSTAR": "0.00162550000000", "MEAN_MOTION_DOT": "0.48918924", "MEAN_MOTION_DDOT": "-0.0000347320000", "SEMIMAJOR_AXIS": "6568.886", "PERIOD": "88.307", "APOAPSIS": "247.111", "PERIAPSIS": "134.391", "OBJECT_TYPE": "ROCKET BODY", "RCS_SIZE": "LARGE", "COUNTRY_CODE": "FR", "LAUNCH_DATE": "1998-12-22", "SITE": "FRGUI", "DECAY_DATE": "2021-06-17", "FILE": "3056865", "GP_ID": "179254556", "TLE_LINE0": "0 ARIANE 42L R/B", "TLE_LINE1": "1 25586U 98075B   21167.88567126  .48918924 -34732-4  16255-2 0  9995", "TLE_LINE2": "2 25586   7.4717 277.7280 0085798 357.6918 111.8858 16.30666521313716"}, {"CCSDS_OMM_VERS": "2.0", "COMMENT": "GENERATED VIA SPACE-TRACK.ORG API", "CREATION_DATE": "2021-12-05T23:26:11", "ORIGINATOR": "18 SPCS", "OBJECT_NAME": "DELTA R/B(1)", "OBJECT_ID": "1999-003B", "CENTER_NAME": "EARTH", "REF_FRAME": "TEME", "TIME_SYSTEM": "UTC", "MEAN_ELEMENT_THEORY": "SGP4", "EPOCH": "2021-12-05T12:53:12.505920", "MEAN_MOTION": "10.92266717", "ECCENTRICITY": "0.22335850", "INCLINATION": "22.4531", "RA_OF_ASC_NODE": "49.2701", "ARG_OF_PERICENTER": "80.1871", "MEAN_ANOMALY": "304.1708", "EPHEMERIS_TYPE": "0", "CLASSIFICATION_TYPE": "U", "NORAD_CAT_ID": "25619", "ELEMENT_SET_NO": "999", "REV_AT_EPOCH": "83444", "BSTAR": "0.00029057000000", "MEAN_MOTION_DOT": "0.00008881", "MEAN_MOTION_DDOT": "-0.0000031790000", "SEMIMAJOR_AXIS": "8580.568", "PERIOD": "131.836", "APOAPSIS": "4118.976", "PERIAPSIS": "285.890", "OBJECT_TYPE": "ROCKET BODY", "RCS_SIZE": "LARGE", "COUNTRY_CODE": "US", "LAUNCH_DATE": "1999-02-07", "SITE": "AFETR", "DECAY_DATE": null, "FILE": "3233465", "GP_ID": "191147725", "TLE_LINE0": "0 DELTA R/B(1)", "TLE_LINE1": "1 25619U 99003B   21339.53695030  .00008881 -31790-5  29057-3 0  9990", "TLE_LINE2": "2 25619  22.4531  49.2701 2233585  80.1871 304.1708 10.92266717834445"}, {"CCSDS_OMM_VERS": "2.0", "COMMENT": "GENERATED VIA SPACE-TRACK.ORG API", "CREATION_DATE": "2021-12-06T02:57:56", "ORIGINATOR": "18 SPCS", "OBJECT_NAME": "ARIANE 40 R/B", "OBJECT_ID": "1999-064C", "CENTER_NAME": "EARTH", "REF_FRAME": "TEME", "TIME_SYSTEM": "UTC", "MEAN_ELEMENT_THEORY": "SGP4", "EPOCH": "2021-12-05T21:51:39.109248", "MEAN_MOTION": "14.96648206", "ECCENTRICITY": "0.00058650", "INCLINATION": "98.1838", "RA_OF_ASC_NODE": "286.5150", "ARG_OF_PERICENTER": "330.3287", "MEAN_ANOMALY": "29.7600", "EPHEMERIS_TYPE": "0", "CLASSIFICATION_TYPE": "U", "NORAD_CAT_ID": "25979", "ELEMENT_SET_NO": "999", "REV_AT_EPOCH": "19424", "BSTAR": "0.00006221700000", "MEAN_MOTION_DOT": "0.00000645", "MEAN_MOTION_DDOT": "0.0000000000000", "SEMIMAJOR_AXIS": "6955.399", "PERIOD": "96.215", "APOAPSIS": "581.343", "PERIAPSIS": "573.184", "OBJECT_TYPE": "ROCKET BODY", "RCS_SIZE": "LARGE", "COUNTRY_CODE": "FR", "LAUNCH_DATE": "1999-12-03", "SITE": "FRGUI", "DECAY_DATE": null, "FILE": "3233515", "GP_ID": "191156411", "TLE_LINE0": "0 ARIANE 40 R/B", "TLE_LINE1": "1 25979U 99064C   21339.91086932  .00000645  00000-0  62217-4 0  9993", "TLE_LINE2": "2 25979  98.1838 286.5150 0005865 330.3287  29.7600 14.96648206194248"}, {"CCSDS_OMM_VERS": "2.0", "COMMENT": "GENERATED VIA SPACE-TRACK.ORG API", "CREATION_DATE": "2021-12-05T20:11:25", "ORIGINATOR": "18 SPCS", "OBJECT_NAME": "ATLAS 2AS CENTAUR R/B", "OBJECT_ID": "2000-007B", "CENTER_NAME": "EARTH", "REF_FRAME": "TEME", "TIME_SYSTEM": "UTC", "MEAN_ELEMENT_THEORY": "SGP4", "EPOCH": "2021-12-05T14:06:55.885248", "MEAN_MOTION": "7.59775571", "ECCENTRICITY": "0.39298080", "INCLINATION": "18.0989", "RA_OF_ASC_NODE": "146.8735", "ARG_OF_PERICENTER": "289.8801", "MEAN_ANOMALY": "32.5575", "EPHEMERIS_TYPE": "0", "CLASSIFICATION_TYPE": "U", "NORAD_CAT_ID": "26072", "ELEMENT_SET_NO": "999", "REV_AT_EPOCH": "21833", "BSTAR": "0.00059329000000", "MEAN_MOTION_DOT": "0.00013907", "MEAN_MOTION_DDOT": "0.0000000000000", "SEMIMAJOR_AXIS": "10929.785", "PERIOD": "189.530", "APOAPSIS": "8846.846", "PERIAPSIS": "256.454", "OBJECT_TYPE": "ROCKET BODY", "RCS_SIZE": "LARGE", "COUNTRY_CODE": "US", "LAUNCH_DATE": "2000-02-03", "SITE": "AFETR", "DECAY_DATE": null, "FILE": "3233179", "GP_ID": "191124031", "TLE_LINE0": "0 ATLAS 2AS CENTAUR R/B", "TLE_LINE1": "1 26072U 00007B   21339.58814682  .00013907  00000-0  59329-3 0  9995", "TLE_LINE2": "2 26072  18.0989 146.8735 3929808 289.8801  32.5575  7.59775571218330"}, {"CCSDS_OMM_VERS": "2.0", "COMMENT": "GENERATED VIA SPACE-TRACK.ORG API", "CREATION_DATE": "2021-12-06T06:36:11", "ORIGINATOR": "18 SPCS", "OBJECT_NAME": "ARIANE 5 DEB (SYLDA)", "OBJECT_ID": "2000-016C", "CENTER_NAME": "EARTH", "REF_FRAME": "TEME", "TIME_SYSTEM": "UTC", "MEAN_ELEMENT_THEORY": "SGP4", "EPOCH": "2021-12-06T04:29:36.279744", "MEAN_MOTION": "2.27410825", "ECCENTRICITY": "0.71577840", "INCLINATION": "6.4067", "RA_OF_ASC_NODE": "189.8665", "ARG_OF_PERICENTER": "35.0210", "MEAN_ANOMALY": "287.3461", "EPHEMERIS_TYPE": "0", "CLASSIFICATION_TYPE": "U", "NORAD_CAT_ID": "26109", "ELEMENT_SET_NO": "999", "REV_AT_EPOCH": "18006", "BSTAR": "0.00103130000000", "MEAN_MOTION_DOT": "0.00000011", "MEAN_MOTION_DDOT": "0.0000000000000", "SEMIMAJOR_AXIS": "24426.491", "PERIOD": "633.215", "APOAPSIS": "35532.311", "PERIAPSIS": "564.401", "OBJECT_TYPE": "DEBRIS", "RCS_SIZE": "LARGE", "COUNTRY_CODE": "FR", "LAUNCH_DATE": "2000-03-21", "SITE": "FRGUI", "DECAY_DATE": null, "FILE": "3233564", "GP_ID": "191174314", "TLE_LINE0": "0 ARIANE 5 DEB (SYLDA)", "TLE_LINE1": "1 26109U 00016C   21340.18722546  .00000011  00000-0  10313-2 0  9992", "TLE_LINE2": "2 26109   6.4067 189.8665 7157784  35.0210 287.3461  2.27410825180063"}, {"CCSDS_OMM_VERS": "2.0", "COMMENT": "GENERATED VIA SPACE-TRACK.ORG API", "CREATION_DATE": "2021-12-06T02:57:56", "ORIGINATOR": "18 SPCS", "OBJECT_NAME": "ARIANE 42L R/B", "OBJECT_ID": "2000-020B", "CENTER_NAME": "EARTH", "REF_FRAME": "TEME", "TIME_SYSTEM": "UTC", "MEAN_ELEMENT_THEORY": "SGP4", "EPOCH": "2021-12-05T19:20:39.166368", "MEAN_MOTION": "4.59946736", "ECCENTRICITY": "0.56139160", "INCLINATION": "7.4102", "RA_OF_ASC_NODE": "205.9906", "ARG_OF_PERICENTER": "27.1966", "MEAN_ANOMALY": "353.5790", "EPHEMERIS_TYPE": "0", "CLASSIFICATION_TYPE": "U", "NORAD_CAT_ID": "26299", "ELEMENT_SET_NO": "999", "REV_AT_EPOCH": "29029", "BSTAR": "0.00084742000000", "MEAN_MOTION_DOT": "0.00002964", "MEAN_MOTION_DDOT": "0.0000000000000", "SEMIMAJOR_AXIS": "15273.204", "PERIOD": "313.080", "APOAPSIS": "17469.317", "PERIAPSIS": "320.820", "OBJECT_TYPE": "ROCKET BODY", "RCS_SIZE": "LARGE", "COUNTRY_CODE": "FR", "LAUNCH_DATE": "2000-04-19", "SITE": "FRGUI", "DECAY_DATE": null, "FILE": "3233515", "GP_ID": "191155683", "TLE_LINE0": "0 ARIANE 42L R/B", "TLE_LINE1": "1 26299U 00020B   21339.80600887  .00002964  00000-0  84742-3 0  9994", "TLE_LINE2": "2 26299   7.4102 205.9906 5613916  27.1966 353.5790  4.59946736290294"}, {"CCSDS_OMM_VERS": "2.0", "COMMENT": "GENERATED VIA SPACE-TRACK.ORG API", "CREATION_DATE": "2021-12-06T02:57:56", "ORIGINATOR": "18 SPCS", "OBJECT_NAME": "TITAN 4B R/B", "OBJECT_ID": "2000-047B", "CENTER_NAME": "EARTH", "REF_FRAME": "TEME", "TIME_SYSTEM": "UTC", "MEAN_ELEMENT_THEORY": "SGP4", "EPOCH": "2021-12-05T21:18:24.384672", "MEAN_MOTION": "14.96309822", "ECCENTRICITY": "0.00589230", "INCLINATION": "67.9947", "RA_OF_ASC_NODE": "38.7768", "ARG_OF_PERICENTER": "323.4396", "MEAN_ANOMALY": "36.2730", "EPHEMERIS_TYPE": "0", "CLASSIFICATION_TYPE": "U", "NORAD_CAT_ID": "26474", "ELEMENT_SET_NO": "999", "REV_AT_EPOCH": "15948", "BSTAR": "0.00004421000000", "MEAN_MOTION_DOT": "0.00000391", "MEAN_MOTION_DDOT": "0.0000000000000", "SEMIMAJOR_AXIS": "6956.447", "PERIOD": "96.237", "APOAPSIS": "619.302", "PERIAPSIS": "537.323", "OBJECT_TYPE": "ROCKET BODY", "RCS_SIZE": "LARGE", "COUNTRY_CODE": "US", "LAUNCH_DATE": "2000-08-17", "SITE": "AFWTR", "DECAY_DATE": null, "FILE": "3233515", "GP_ID": "191155441", "TLE_LINE0": "0 TITAN 4B R/B", "TLE_LINE1": "1 26474U 00047B   21339.88778223  .00000391  00000-0  44210-4 0  9995", "TLE_LINE2": "2 26474  67.9947  38.7768 0058923 323.4396  36.2730 14.96309822159485"}, {"CCSDS_OMM_VERS": "2.0", "COMMENT": "GENERATED VIA SPACE-TRACK.ORG API", "CREATION_DATE": "2021-12-06T06:16:10", "ORIGINATOR": "18 SPCS", "OBJECT_NAME": "ARIANE 44L R/B", "OBJECT_ID": "2001-005C", "CENTER_NAME": "EARTH", "REF_FRAME": "TEME", "TIME_SYSTEM": "UTC", "MEAN_ELEMENT_THEORY": "SGP4", "EPOCH": "2021-12-05T19:42:19.066464", "MEAN_MOTION": "2.60129049", "ECCENTRICITY": "0.69990790", "INCLINATION": "6.8773", "RA_OF_ASC_NODE": "156.9355", "ARG_OF_PERICENTER": "359.5081", "MEAN_ANOMALY": "0.0274", "EPHEMERIS_TYPE": "0", "CLASSIFICATION_TYPE": "U", "NORAD_CAT_ID": "26696", "ELEMENT_SET_NO": "999", "REV_AT_EPOCH": "18534", "BSTAR": "0.00024687000000", "MEAN_MOTION_DOT": "0.00000201", "MEAN_MOTION_DDOT": "0.0000000000000", "SEMIMAJOR_AXIS": "22332.771", "PERIOD": "553.571", "APOAPSIS": "31585.518", "PERIAPSIS": "323.753", "OBJECT_TYPE": "ROCKET BODY", "RCS_SIZE": "LARGE", "COUNTRY_CODE": "FR", "LAUNCH_DATE": "2001-02-07", "SITE": "FRGUI", "DECAY_DATE": null, "FILE": "3233527", "GP_ID": "191173025", "TLE_LINE0": "0 ARIANE 44L R/B", "TLE_LINE1": "1 26696U 01005C   21339.82105401  .00000201  00000-0  24687-3 0  9997", "TLE_LINE2": "2 26696   6.8773 156.9355 6999079 359.5081   0.0274  2.60129049185343"}]